{
  "type": "FeatureCollection",
  "features": [
    {
      "type": "Feature",
      "properties": {
        "norad_id": 15362,
        "name": "NOVA 3",
        "group": "nnss",
        "lat": 64.95762150884426,
        "lon": -99.10290535056623,
        "alt_km": 1188.9827536025214,
        "timestamp": "2025-12-21T07:34:34.786268+00:00",
        "meta_object_name": "NOVA 3",
        "meta_object_id": "1984-110A",
        "meta_epoch": "2025-12-20T18:53:57.522048",
        "meta_mean_motion": 13.23045473,
        "meta_eccentricity": 0.0029997,
        "meta_inclination": 90.1221,
        "meta_ra_of_asc_node": 80.6294,
        "meta_arg_of_pericenter": 308.824,
        "meta_mean_anomaly": 171.7165,
        "meta_ephemeris_type": 0,
        "meta_classification_type": "U",
        "meta_norad_cat_id": 15362,
        "meta_element_set_no": 999,
        "meta_rev_at_epoch": 98805,
        "meta_bstar": 0.00011296059,
        "meta_mean_motion_dot": 5.6e-07,
        "meta_mean_motion_ddot": 0,
        "tle_line1": "1 15362U 84110A   25354.78747132  .00000056  00000+0  11296-3 0  9991",
        "tle_line2": "2 15362  90.1221  80.6294 0029997 308.8240 171.7165 13.23045473988054"
      },
      "geometry": {
        "type": "Point",
        "coordinates": [
          -99.10290535056623,
          64.95762150884426
        ]
      }
    },
    {
      "type": "Feature",
      "properties": {
        "norad_id": 15935,
        "name": "OSCAR 30",
        "group": "nnss",
        "lat": -57.6844815029657,
        "lon": -80.27443840081345,
        "alt_km": 1257.9151037252304,
        "timestamp": "2025-12-21T07:34:34.786277+00:00",
        "meta_object_name": "OSCAR 30",
        "meta_object_id": "1985-066A",
        "meta_epoch": "2025-12-20T20:09:09.955584",
        "meta_mean_motion": 13.36079432,
        "meta_eccentricity": 0.01691709,
        "meta_inclination": 90.1655,
        "meta_ra_of_asc_node": 99.9796,
        "meta_arg_of_pericenter": 61.2952,
        "meta_mean_anomaly": 48.1693,
        "meta_ephemeris_type": 0,
        "meta_classification_type": "U",
        "meta_norad_cat_id": 15935,
        "meta_element_set_no": 999,
        "meta_rev_at_epoch": 96561,
        "meta_bstar": 0.00010448209,
        "meta_mean_motion_dot": 6.8e-07,
        "meta_mean_motion_ddot": 0,
        "tle_line1": "1 15935U 85066A   25354.83969856  .00000068  00000+0  10448-3 0  9994",
        "tle_line2": "2 15935  90.1655  99.9796 0169170  61.2952  48.1693 13.36079432965615"
      },
      "geometry": {
        "type": "Point",
        "coordinates": [
          -80.27443840081345,
          -57.6844815029657
        ]
      }
    },
    {
      "type": "Feature",
      "properties": {
        "norad_id": 15936,
        "name": "OSCAR 24",
        "group": "nnss",
        "lat": -53.29625015383428,
        "lon": 92.69742548631602,
        "alt_km": 1192.972257520526,
        "timestamp": "2025-12-21T07:34:34.786287+00:00",
        "meta_object_name": "OSCAR 24",
        "meta_object_id": "1985-066B",
        "meta_epoch": "2025-12-20T19:49:13.393344",
        "meta_mean_motion": 13.35936837,
        "meta_eccentricity": 0.01702835,
        "meta_inclination": 90.1791,
        "meta_ra_of_asc_node": 92.4484,
        "meta_arg_of_pericenter": 67.7638,
        "meta_mean_anomaly": 46.3232,
        "meta_ephemeris_type": 0,
        "meta_classification_type": "U",
        "meta_norad_cat_id": 15936,
        "meta_element_set_no": 999,
        "meta_rev_at_epoch": 96751,
        "meta_bstar": 0.00010512997,
        "meta_mean_motion_dot": 6.8e-07,
        "meta_mean_motion_ddot": 0,
        "tle_line1": "1 15936U 85066B   25354.82584946  .00000068  00000+0  10513-3 0  9990",
        "tle_line2": "2 15936  90.1791  92.4484 0170283  67.7638  46.3232 13.35936837967518"
      },
      "geometry": {
        "type": "Point",
        "coordinates": [
          92.69742548631602,
          -53.29625015383428
        ]
      }
    },
    {
      "type": "Feature",
      "properties": {
        "norad_id": 17070,
        "name": "POLAR BEAR",
        "group": "nnss",
        "lat": -83.38241742852254,
        "lon": -179.87500221477373,
        "alt_km": 1018.6145940382075,
        "timestamp": "2025-12-21T07:34:34.786297+00:00",
        "meta_object_name": "POLAR BEAR",
        "meta_object_id": "1986-088A",
        "meta_epoch": "2025-12-20T22:06:23.235264",
        "meta_mean_motion": 13.75252406,
        "meta_eccentricity": 0.00412817,
        "meta_inclination": 89.617,
        "meta_ra_of_asc_node": 183.4461,
        "meta_arg_of_pericenter": 95.6829,
        "meta_mean_anomaly": 28.6263,
        "meta_ephemeris_type": 0,
        "meta_classification_type": "U",
        "meta_norad_cat_id": 17070,
        "meta_element_set_no": 999,
        "meta_rev_at_epoch": 96091,
        "meta_bstar": 8.7197656e-05,
        "meta_mean_motion_dot": 9.6e-07,
        "meta_mean_motion_ddot": 0,
        "tle_line1": "1 17070U 86088A   25354.92110226  .00000096  00000+0  87198-4 0  9998",
        "tle_line2": "2 17070  89.6170 183.4461 0041281  95.6829  28.6263 13.75252406960917"
      },
      "geometry": {
        "type": "Point",
        "coordinates": [
          -179.87500221477373,
          -83.38241742852254
        ]
      }
    },
    {
      "type": "Feature",
      "properties": {
        "norad_id": 18361,
        "name": "OSCAR 27",
        "group": "nnss",
        "lat": -40.49979867625198,
        "lon": 79.91276640618952,
        "alt_km": 1136.3120885788412,
        "timestamp": "2025-12-21T07:34:34.786306+00:00",
        "meta_object_name": "OSCAR 27",
        "meta_object_id": "1987-080A",
        "meta_epoch": "2025-12-20T19:16:52.982400",
        "meta_mean_motion": 13.44908235,
        "meta_eccentricity": 0.01035715,
        "meta_inclination": 90.374,
        "meta_ra_of_asc_node": 79.574,
        "meta_arg_of_pericenter": 200.5384,
        "meta_mean_anomaly": 159.1587,
        "meta_ephemeris_type": 0,
        "meta_classification_type": "U",
        "meta_norad_cat_id": 18361,
        "meta_element_set_no": 999,
        "meta_rev_at_epoch": 87665,
        "meta_bstar": 0.00014448931,
        "meta_mean_motion_dot": 9.6e-07,
        "meta_mean_motion_ddot": 0,
        "tle_line1": "1 18361U 87080A   25354.80339100  .00000096  00000+0  14449-3 0  9994",
        "tle_line2": "2 18361  90.3740  79.5740 0103571 200.5384 159.1587 13.44908235876652"
      },
      "geometry": {
        "type": "Point",
        "coordinates": [
          79.91276640618952,
          -40.49979867625198
        ]
      }
    },
    {
      "type": "Feature",
      "properties": {
        "norad_id": 18362,
        "name": "OSCAR 29",
        "group": "nnss",
        "lat": -42.2709810993793,
        "lon": 80.39378785674954,
        "alt_km": 1106.0672753841145,
        "timestamp": "2025-12-21T07:34:34.786315+00:00",
        "meta_object_name": "OSCAR 29",
        "meta_object_id": "1987-080B",
        "meta_epoch": "2025-12-20T19:54:26.092224",
        "meta_mean_motion": 13.44449737,
        "meta_eccentricity": 0.01044171,
        "meta_inclination": 90.3751,
        "meta_ra_of_asc_node": 80.0344,
        "meta_arg_of_pericenter": 223.7095,
        "meta_mean_anomaly": 261.0349,
        "meta_ephemeris_type": 0,
        "meta_classification_type": "U",
        "meta_norad_cat_id": 18362,
        "meta_element_set_no": 999,
        "meta_rev_at_epoch": 87618,
        "meta_bstar": 0.0001254404,
        "meta_mean_motion_dot": 8.3e-07,
        "meta_mean_motion_ddot": 0,
        "tle_line1": "1 18362U 87080B   25354.82946866  .00000083  00000+0  12544-3 0  9990",
        "tle_line2": "2 18362  90.3751  80.0344 0104417 223.7095 261.0349 13.44449737876182"
      },
      "geometry": {
        "type": "Point",
        "coordinates": [
          80.39378785674954,
          -42.2709810993793
        ]
      }
    },
    {
      "type": "Feature",
      "properties": {
        "norad_id": 19070,
        "name": "OSCAR 23",
        "group": "nnss",
        "lat": -60.457586855810284,
        "lon": 17.22402836091243,
        "alt_km": 1276.535116664043,
        "timestamp": "2025-12-21T07:34:34.786324+00:00",
        "meta_object_name": "OSCAR 23",
        "meta_object_id": "1988-033A",
        "meta_epoch": "2025-12-20T14:23:51.321984",
        "meta_mean_motion": 13.27788452,
        "meta_eccentricity": 0.0190178,
        "meta_inclination": 90.3204,
        "meta_ra_of_asc_node": 16.6361,
        "meta_arg_of_pericenter": 158.1011,
        "meta_mean_anomaly": 320.7202,
        "meta_ephemeris_type": 0,
        "meta_classification_type": "U",
        "meta_norad_cat_id": 19070,
        "meta_element_set_no": 999,
        "meta_rev_at_epoch": 82357,
        "meta_bstar": 0.00014595,
        "meta_mean_motion_dot": 8.2e-07,
        "meta_mean_motion_ddot": 0,
        "tle_line1": "1 19070U 88033A   25354.59989956  .00000082  00000+0  14595-3 0  9994",
        "tle_line2": "2 19070  90.3204  16.6361 0190178 158.1011 320.7202 13.27788452823571"
      },
      "geometry": {
        "type": "Point",
        "coordinates": [
          17.22402836091243,
          -60.457586855810284
        ]
      }
    }
  ]
}